NORAD_CAT_ID,OBJECT_NAME,OBJECT_TYPE,EPOCH,MEAN_MOTION,ECCENTRICITY,INCLINATION,RA_OF_ASC_NODE,ARG_OF_PERICENTER,MEAN_ANOMALY,BSTAR,MEAN_MOTION_DOT,MEAN_MOTION_DDOT,TLE_LINE0,TLE_LINE1,TLE_LINE2,SEMIMAJOR_AXIS,PERIOD,APOGEE,PERIGEE,DECAYED
52565.0,STARLINK-3911,PAYLOAD,2023-10-22 13:48:02,15.08825737,0.0001789,53.2178,60.7257,101.5307,258.5886,-3.2603e-05,-8.07e-06,0.0,0 STARLINK-3911,1 52565U 22051AJ  23295.57503220 -.00000807  00000-0 -32603-4 0  9993,2 52565  53.2178  60.7257 0001789 101.5307 258.5886 15.08825737 80376,6917.924,95.438,541.027,538.551,0.0
52565.0,STARLINK-3911,PAYLOAD,2023-10-22 15:23:25,15.08828295,0.0001665,53.2179,60.4315,78.4327,281.6852,-3.217e-05,-8e-06,0.0,0 STARLINK-3911,1 52565U 22051AJ  23295.64127222 -.00000800  00000-0 -32170-4 0  9997,2 52565  53.2179  60.4315 0001665  78.4327 281.6852 15.08828295 80389,6917.916,95.438,540.933,538.629,0.0
52565.0,STARLINK-3911,PAYLOAD,2023-10-23 12:03:26,15.08841585,0.000157,53.218,56.5657,81.1003,279.0167,-6.5623e-06,-3.92e-06,0.0,0 STARLINK-3911,1 52565U 22051AJ  23296.50238797 -.00000392  00000-0 -65623-5 0  9999,2 52565  53.2180  56.5657 0001570  81.1003 279.0167 15.08841585 80582,6917.876,95.437,540.827,538.654,0.0
52565.0,STARLINK-3911,PAYLOAD,2023-10-23 15:14:12,15.08846224,0.0001586,53.2178,55.9717,80.1481,279.9691,2.8975e-05,1.73e-06,0.0,0 STARLINK-3911,1 52565U 22051AJ  23296.63486398  .00000173  00000-0  28975-4 0  9998,2 52565  53.2178  55.9717 0001586  80.1481 279.9691 15.08846224 80536,6917.861,95.437,540.824,538.629,0.0
52565.0,STARLINK-3911,PAYLOAD,2023-10-24 11:54:13,15.08829438,0.0001627,53.2184,52.1079,81.7554,278.3623,0.00014544,2.027e-05,0.0,0 STARLINK-3911,1 52565U 22051AJ  23297.49599458  .00002027  00000-0  14544-3 0  9991,2 52565  53.2184  52.1079 0001627  81.7554 278.3623 15.08829438 80735,6917.913,95.438,540.903,538.652,0.0
52565.0,STARLINK-3911,PAYLOAD,2023-10-24 15:05:00,15.08828102,0.0001818,53.2192,51.5142,86.1487,273.9713,0.00024671,3.639e-05,0.0,0 STARLINK-3911,1 52565U 22051AJ  23297.62847365  .00003639  00000-0  24671-3 0  9991,2 52565  53.2192  51.5142 0001818  86.1487 273.9713 15.08828102 80686,6917.917,95.438,541.039,538.524,0.0
52565.0,STARLINK-3911,PAYLOAD,2023-10-25 14:55:46,15.0884718,0.0001502,53.2196,47.0518,78.8755,281.2406,5.4862e-05,5.85e-06,0.0,0 STARLINK-3911,1 52565U 22051AJ  23298.62206737  .00000585  00000-0  54862-4 0  9997,2 52565  53.2196  47.0518 0001502  78.8755 281.2406 15.08847180 80906,6917.858,95.437,540.763,538.684,0.0
52565.0,STARLINK-3911,PAYLOAD,2023-10-26 00:28:05,15.0883971,0.0001788,53.2205,45.2678,82.4169,277.7027,7.8985e-05,9.69e-06,0.0,0 STARLINK-3911,1 52565U 22051AJ  23299.01951166  .00000969  00000-0  78985-4 0  9992,2 52565  53.2205  45.2678 0001788  82.4169 277.7027 15.08839710 80965,6917.881,95.438,540.983,538.509,0.0
52565.0,STARLINK-3911,PAYLOAD,2023-10-26 13:11:10,15.08843565,0.000143,53.2182,42.887,102.2139,257.9013,5.305e-05,5.57e-06,0.0,0 STARLINK-3911,1 52565U 22051AJ  23299.54942800  .00000557  00000-0  53050-4 0  9994,2 52565  53.2182  42.8870 0001430 102.2139 257.9013 15.08843565 80977,6917.869,95.437,540.724,538.745,0.0
52565.0,STARLINK-3911,PAYLOAD,2023-10-26 14:46:33,15.08848022,0.0001333,53.2189,42.5912,67.1356,292.9777,8.4147e-05,1.052e-05,0.0,0 STARLINK-3911,1 52565U 22051AJ  23299.61566588  .00001052  00000-0  84147-4 0  9999,2 52565  53.2189  42.5912 0001333  67.1356 292.9777 15.08848022 80980,6917.856,95.437,540.643,538.799,0.0
52565.0,STARLINK-3911,PAYLOAD,2023-10-27 13:01:56,15.08846336,0.000108,53.2181,38.429,79.1219,280.9894,0.00017995,2.578e-05,0.0,0 STARLINK-3911,1 52565U 22051AJ  23300.54301954  .00002578  00000-0  17995-3 0  9998,2 52565  53.2181  38.4290 0001080  79.1219 280.9894 15.08846336 81192,6917.861,95.437,540.473,538.979,0.0
52565.0,STARLINK-3911,PAYLOAD,2023-10-28 12:52:45,15.08833238,0.0001512,53.2194,33.9666,80.4786,279.6377,-9.8002e-05,-1.847e-05,0.0,0 STARLINK-3911,1 52565U 22051AJ  23301.53663786 -.00001847  00000-0 -98002-4 0  9991,2 52565  53.2194  33.9666 0001512  80.4786 279.6377 15.08833238 81342,6917.901,95.438,540.812,538.72,0.0
52565.0,STARLINK-3911,PAYLOAD,2023-10-28 16:03:31,15.08839023,0.0001356,53.2198,33.3705,93.7627,266.352,-0.00011392,-2.1e-05,0.0,0 STARLINK-3911,1 52565U 22051AJ  23301.66911393 -.00002100  00000-0 -11392-3 0  9994,2 52565  53.2198  33.3705 0001356  93.7627 266.3520 15.08839023 81296,6917.883,95.438,540.686,538.81,0.0
52565.0,STARLINK-3911,PAYLOAD,2023-10-29 12:43:29,15.08868719,0.0001301,53.2191,29.5063,81.3265,278.7875,0.0001543,2.17e-05,0.0,0 STARLINK-3911,1 52565U 22051AJ  23302.53020634  .00002170  00000-0  15430-3 0  9992,2 52565  53.2191  29.5063 0001301  81.3265 278.7875 15.08868719 81490,6917.793,95.436,540.558,538.758,0.0
52565.0,STARLINK-3911,PAYLOAD,2023-10-29 15:54:15,15.08870715,0.0001333,53.2192,28.9108,82.1098,278.0046,0.00015942,2.252e-05,0.0,0 STARLINK-3911,1 52565U 22051AJ  23302.66268295  .00002252  00000-0  15942-3 0  9992,2 52565  53.2192  28.9108 0001333  82.1098 278.0046 15.08870715 81449,6917.787,95.436,540.574,538.729,0.0
52565.0,STARLINK-3911,PAYLOAD,2023-10-30 12:34:21,15.08817097,0.0001499,53.2178,25.0485,95.9901,264.1262,-0.00013566,-2.445e-05,0.0,0 STARLINK-3911,1 52565U 22051AJ  23303.52385436 -.00002445  00000-0 -13566-3 0  9991,2 52565  53.2178  25.0485 0001499  95.9901 264.1262 15.08817097 81649,6917.95,95.439,540.852,538.778,0.0
52565.0,STARLINK-3911,PAYLOAD,2023-10-30 22:06:39,15.08828946,0.0001344,53.2178,23.2643,77.0738,283.0404,3.6353e-05,2.91e-06,0.0,0 STARLINK-3911,1 52565U 22051AJ  23303.92129143  .00000291  00000-0  36353-4 0  9991,2 52565  53.2178  23.2643 0001344  77.0738 283.0404 15.08828946 81635,6917.914,95.438,540.709,538.849,0.0
52565.0,STARLINK-3911,PAYLOAD,2023-10-31 12:25:06,15.08856208,0.0001658,53.218,20.5891,87.5169,272.6013,0.00023467,3.45e-05,0.0,0 STARLINK-3911,1 52565U 22051AJ  23304.51744191  .00003450  00000-0  23467-3 0  9994,2 52565  53.2180  20.5891 0001658  87.5169 272.6013 15.08856208 81794,6917.831,95.437,540.843,538.549,0.0
52565.0,STARLINK-3911,PAYLOAD,2023-10-31 14:00:29,15.08861063,0.0001486,53.2171,20.2884,75.3234,284.7922,0.00028738,4.291e-05,0.0,0 STARLINK-3911,1 52565U 22051AJ  23304.58367622  .00004291  00000-0  28738-3 0  9991,2 52565  53.2171  20.2884 0001486  75.3234 284.7922 15.08861063 81732,6917.816,95.436,540.709,538.653,0.0
52565.0,STARLINK-3911,PAYLOAD,2023-10-31 21:57:25,15.08845838,0.0001859,53.2174,18.8022,82.089,278.0313,0.00011099,1.479e-05,0.0,0 STARLINK-3911,1 52565U 22051AJ  23304.91488070  .00001479  00000-0  11099-3 0  9996,2 52565  53.2174  18.8022 0001859  82.0890 278.0313 15.08845838 81786,6917.863,95.437,541.014,538.442,0.0
52565.0,STARLINK-3911,PAYLOAD,2023-11-01 12:15:54,15.08845923,0.0001607,53.2175,16.1271,86.6085,273.5091,0.00028292,4.218e-05,0.0,0 STARLINK-3911,1 52565U 22051AJ  23305.51104668  .00004218  00000-0  28292-3 0  9998,2 52565  53.2175  16.1271 0001607  86.6085 273.5091 15.08845923 81947,6917.862,95.437,540.839,538.616,0.0
52565.0,STARLINK-3911,PAYLOAD,2023-11-01 13:51:17,15.08849667,0.0001607,53.2171,15.8285,81.2273,278.8901,0.00032618,4.908e-05,0.0,0 STARLINK-3911,1 52565U 22051AJ  23305.57728451  .00004908  00000-0  32618-3 0  9999,2 52565  53.2171  15.8285 0001607  81.2273 278.8901 15.08849667 81884,6917.851,95.437,540.828,538.604,0.0
52565.0,STARLINK-3911,PAYLOAD,2023-11-01 21:48:12,15.08851636,0.0001543,53.2171,14.3423,78.0359,282.0806,0.00024789,3.661e-05,0.0,0 STARLINK-3911,1 52565U 22051AJ  23305.90848145  .00003661  00000-0  24789-3 0  9994,2 52565  53.2171  14.3423 0001543  78.0359 282.0806 15.08851636 81936,6917.845,95.437,540.777,538.642,0.0
52565.0,STARLINK-3911,PAYLOAD,2023-11-02 13:42:03,15.08858268,0.0001531,53.2175,11.3687,82.3462,277.7704,-2.4413e-05,-6.77e-06,0.0,0 STARLINK-3911,1 52565U 22051AJ  23306.57087716 -.00000677  00000-0 -24413-4 0  9998,2 52565  53.2175  11.3687 0001531  82.3462 277.7704 15.08858268 82037,6917.825,95.436,540.749,538.63,0.0
52565.0,STARLINK-3911,PAYLOAD,2023-11-02 21:38:59,15.08845044,0.0001621,53.2168,9.8815,84.1692,275.9485,-6.2261e-06,-3.87e-06,0.0,0 STARLINK-3911,1 52565U 22051AJ  23306.90207825 -.00000387  00000-0 -62261-5 0  9992,2 52565  53.2168   9.8815 0001621  84.1692 275.9485 15.08845044 82088,6917.865,95.437,540.851,538.609,0.0
52565.0,STARLINK-3911,PAYLOAD,2023-11-03 13:32:50,15.08853055,0.0001873,53.2187,6.9045,94.3557,265.7649,2.6371e-05,1.32e-06,0.0,0 STARLINK-3911,1 52565U 22051AJ  23307.56447524  .00000132  00000-0  26371-4 0  9994,2 52565  53.2187   6.9045 0001873  94.3557 265.7649 15.08853055 82185,6917.84,95.437,541.001,538.41,0.0
52565.0,STARLINK-3911,PAYLOAD,2023-11-04 03:51:17,15.08853354,0.0001456,53.2178,4.233,96.0471,264.0687,0.0001643,2.329e-05,0.0,0 STARLINK-3911,1 52565U 22051AJ  23308.16062452  .00002329  00000-0  16430-3 0  9998,2 52565  53.2178   4.2330 0001456  96.0471 264.0687 15.08853354 82348,6917.84,95.437,540.712,538.697,0.0
52565.0,STARLINK-3911,PAYLOAD,2023-11-04 10:12:50,15.08856847,0.0001591,53.2175,3.0434,98.6469,261.4704,0.00018577,2.671e-05,0.0,0 STARLINK-3911,1 52565U 22051AJ  23308.42557972  .00002671  00000-0  18577-3 0  9997,2 52565  53.2175   3.0434 0001591  98.6469 261.4704 15.08856847 82310,6917.829,95.436,540.795,538.593,0.0
52565.0,STARLINK-3911,PAYLOAD,2023-11-04 21:20:32,15.08843442,0.0001389,53.218,0.9582,94.2826,265.8325,4.4024e-05,4.13e-06,0.0,0 STARLINK-3911,1 52565U 22051AJ  23308.88926889  .00000413  00000-0  44024-4 0  9993,2 52565  53.2180   0.9582 0001389  94.2826 265.8325 15.08843442 82381,6917.87,95.437,540.696,538.774,0.0
52565.0,STARLINK-3911,PAYLOAD,2023-11-05 03:42:06,15.08824104,0.0001426,53.219,359.7707,90.3606,269.755,-9.1254e-05,-1.739e-05,0.0,0 STARLINK-3911,1 52565U 22051AJ  23309.15424692 -.00001739  00000-0 -91254-4 0  9990,2 52565  53.2190 359.7707 0001426  90.3606 269.7550 15.08824104 82490,6917.929,95.439,540.78,538.807,0.0
